[{"OBJECT_NAME":"STARLINK-32324","OBJECT_ID":"2024-202U","EPOCH":"2026-03-09T11:36:41.724000","MEAN_MOTION":15.27558638,"ECCENTRICITY":7.784e-5,"INCLINATION":43.0028,"RA_OF_ASC_NODE":239.3682,"ARG_OF_PERICENTER":238.0815,"MEAN_ANOMALY":121.9961,"EPHEMERIS_TYPE":0,"CLASSIFICATION_TYPE":"U","NORAD_CAT_ID":61863,"ELEMENT_SET_NO":999,"REV_AT_EPOCH":7529,"BSTAR":0.00023589662,"MEAN_MOTION_DOT":6.231e-5,"MEAN_MOTION_DDOT":0},{"OBJECT_NAME":"COSMOS 2251 DEB","OBJECT_ID":"1993-036SV","EPOCH":"2026-03-09T21:55:42.811680","MEAN_MOTION":15.15006345,"ECCENTRICITY":0.00579573,"INCLINATION":74.0283,"RA_OF_ASC_NODE":1.8812,"ARG_OF_PERICENTER":55.6817,"MEAN_ANOMALY":304.9843,"EPHEMERIS_TYPE":0,"CLASSIFICATION_TYPE":"U","NORAD_CAT_ID":34452,"ELEMENT_SET_NO":999,"REV_AT_EPOCH":91981,"BSTAR":0.0011020825,"MEAN_MOTION_DOT":0.00021495,"MEAN_MOTION_DDOT":0}]
